IRIDIUM 36              
1 24967U 97056C   24301.77727326  .00001958  00000+0  65244-3 0  9992
2 24967  86.3920 270.5868 0002519  84.3175 275.8310 14.37156574418832
IRIDIUM 39              
1 25042U 97069D   24302.01497150  .00002782  00000+0  73484-3 0  9999
2 25042  86.3880 310.6906 0018309   9.6431 350.5120 14.48512284415608
IRIDIUM 38              
1 25043U 97069E   24302.36797059  .00001671  00000+0  55025-3 0  9996
2 25043  86.3954 330.7154 0003790 113.7304 246.4291 14.37645098412903
IRIDIUM 42              
1 25077U 97077A   24302.16168749  .00001538  00000+0  52388-3 0  9999
2 25077  86.3971 336.6845 0002592 106.1525 253.9957 14.35916389407897
IRIDIUM 44              
1 25078U 97077B   24301.97579563  .00001784  00000+0  56315-3 0  9995
2 25078  86.3932 319.3048 0004049  81.6670 278.4987 14.39764524410317
IRIDIUM 45              
1 25104U 97082A   24302.33575788  .00034220  00000+0  16144-2 0  9993
2 25104  86.3680 159.4233 0145664 112.4529 249.2211 15.10296829417154
IRIDIUM 24              
1 25105U 97082B   24301.89802505  .00001709  00000+0  51900-3 0  9990
2 25105  86.3967 178.7336 0013082 119.1831 241.0680 14.41602193409743
IRIDIUM 51              
1 25262U 98018A   24302.38546294  .00050886  00000+0  18821-2 0  9993
2 25262  86.3955 168.7972 0127510  49.5778 311.6504 15.20091402411809
